[
  {
    "OBJECT_NAME": "STARLINK-32606",
    "OBJECT_ID": "24210V",
    "EPOCH": "2025-11-10T21:21:56.316960",
    "MEAN_MOTION": 15.27574595,
    "ECCENTRICITY": 0.0001586,
    "INCLINATION": 43.003,
    "RA_OF_ASC_NODE": 130.5254,
    "ARG_OF_PERICENTER": 284.0015,
    "MEAN_ANOMALY": 76.066,
    "EPHEMERIS_TYPE": 0,
    "CLASSIFICATION_TYPE": "U",
    "NORAD_CAT_ID": 61978,
    "ELEMENT_SET_NO": 999,
    "REV_AT_EPOCH": 5671,
    "BSTAR": 0.0018453,
    "MEAN_MOTION_DOT": 0.00050859,
    "MEAN_MOTION_DDOT": 0.0,
    "TLE_LINE1": "1 61978U 24210V   25314.89023515  .00050859  00000+0  18453-2 0  9997",
    "TLE_LINE2": "2 61978  43.0030 130.5254 0001586 284.0015  76.0660 15.27574595 56717",
    "COMMENT": "Grouped by shell and plane from TLE"
  },
  {
    "OBJECT_NAME": "STARLINK-32517",
    "OBJECT_ID": "24210X",
    "EPOCH": "2025-11-10T19:18:23.781024",
    "MEAN_MOTION": 15.27593572,
    "ECCENTRICITY": 0.0001262,
    "INCLINATION": 42.9989,
    "RA_OF_ASC_NODE": 131.6006,
    "ARG_OF_PERICENTER": 279.2035,
    "MEAN_ANOMALY": 80.8673,
    "EPHEMERIS_TYPE": 0,
    "CLASSIFICATION_TYPE": "U",
    "NORAD_CAT_ID": 61980,
    "ELEMENT_SET_NO": 999,
    "REV_AT_EPOCH": 5664,
    "BSTAR": 0.0010837,
    "MEAN_MOTION_DOT": 0.00029693,
    "MEAN_MOTION_DDOT": 0.0,
    "TLE_LINE1": "1 61980U 24210X   25314.80444191  .00029693  00000+0  10837-2 0  9998",
    "TLE_LINE2": "2 61980  42.9989 131.6006 0001262 279.2035  80.8673 15.27593572 56642",
    "COMMENT": "Grouped by shell and plane from TLE"
  },
  {
    "OBJECT_NAME": "STARLINK-32522",
    "OBJECT_ID": "24210Y",
    "EPOCH": "2025-11-10T20:04:26.294880",
    "MEAN_MOTION": 15.27610807,
    "ECCENTRICITY": 0.0001312,
    "INCLINATION": 42.9955,
    "RA_OF_ASC_NODE": 130.9733,
    "ARG_OF_PERICENTER": 264.1554,
    "MEAN_ANOMALY": 95.9148,
    "EPHEMERIS_TYPE": 0,
    "CLASSIFICATION_TYPE": "U",
    "NORAD_CAT_ID": 61981,
    "ELEMENT_SET_NO": 999,
    "REV_AT_EPOCH": 5670,
    "BSTAR": 0.0010144,
    "MEAN_MOTION_DOT": 0.00027784,
    "MEAN_MOTION_DDOT": 0.0,
    "TLE_LINE1": "1 61981U 24210Y   25314.83641545  .00027784  00000+0  10144-2 0  9994",
    "TLE_LINE2": "2 61981  42.9955 130.9733 0001312 264.1554  95.9148 15.27610807 56702",
    "COMMENT": "Grouped by shell and plane from TLE"
  },
  {
    "OBJECT_NAME": "STARLINK-32848",
    "OBJECT_ID": "25018C",
    "EPOCH": "2025-11-11T05:44:44.989440",
    "MEAN_MOTION": 15.30264482,
    "ECCENTRICITY": 8.03e-05,
    "INCLINATION": 53.1664,
    "RA_OF_ASC_NODE": 139.7489,
    "ARG_OF_PERICENTER": 261.1416,
    "MEAN_ANOMALY": 98.9494,
    "EPHEMERIS_TYPE": 0,
    "CLASSIFICATION_TYPE": "U",
    "NORAD_CAT_ID": 62808,
    "ELEMENT_SET_NO": 999,
    "REV_AT_EPOCH": 4503,
    "BSTAR": 0.0011665,
    "MEAN_MOTION_DOT": 0.00034418,
    "MEAN_MOTION_DDOT": 0.0,
    "TLE_LINE1": "1 62808U 25018C   25315.23940960  .00034418  00000+0  11665-2 0  9999",
    "TLE_LINE2": "2 62808  53.1664 139.7489 0000803 261.1416  98.9494 15.30264482 45034",
    "COMMENT": "Grouped by shell and plane from TLE"
  },
  {
    "OBJECT_NAME": "STARLINK-32851",
    "OBJECT_ID": "25018E",
    "EPOCH": "2025-11-11T05:41:44.009952",
    "MEAN_MOTION": 15.30210799,
    "ECCENTRICITY": 0.0002302,
    "INCLINATION": 53.1561,
    "RA_OF_ASC_NODE": 139.7394,
    "ARG_OF_PERICENTER": 91.9487,
    "MEAN_ANOMALY": 268.1778,
    "EPHEMERIS_TYPE": 0,
    "CLASSIFICATION_TYPE": "U",
    "NORAD_CAT_ID": 62810,
    "ELEMENT_SET_NO": 999,
    "REV_AT_EPOCH": 4503,
    "BSTAR": 0.00092473,
    "MEAN_MOTION_DOT": 0.00027139,
    "MEAN_MOTION_DDOT": 0.0,
    "TLE_LINE1": "1 62810U 25018E   25315.23731493  .00027139  00000+0  92473-3 0  9990",
    "TLE_LINE2": "2 62810  53.1561 139.7394 0002302  91.9487 268.1778 15.30210799 45039",
    "COMMENT": "Grouped by shell and plane from TLE"
  },
  {
    "OBJECT_NAME": "STARLINK-32847",
    "OBJECT_ID": "25018F",
    "EPOCH": "2025-11-11T05:15:53.403840",
    "MEAN_MOTION": 15.30208232,
    "ECCENTRICITY": 0.0001771,
    "INCLINATION": 53.1569,
    "RA_OF_ASC_NODE": 139.6239,
    "ARG_OF_PERICENTER": 82.5298,
    "MEAN_ANOMALY": 277.5904,
    "EPHEMERIS_TYPE": 0,
    "CLASSIFICATION_TYPE": "U",
    "NORAD_CAT_ID": 62811,
    "ELEMENT_SET_NO": 999,
    "REV_AT_EPOCH": 4503,
    "BSTAR": 0.0015853999999999998,
    "MEAN_MOTION_DOT": 0.00046905,
    "MEAN_MOTION_DDOT": 0.0,
    "TLE_LINE1": "1 62811U 25018F   25315.21936810  .00046905  00000+0  15854-2 0  9998",
    "TLE_LINE2": "2 62811  53.1569 139.6239 0001771  82.5298 277.5904 15.30208232 45034",
    "COMMENT": "Grouped by shell and plane from TLE"
  },
  {
    "OBJECT_NAME": "STARLINK-32837",
    "OBJECT_ID": "25018G",
    "EPOCH": "2025-11-11T05:29:32.675424",
    "MEAN_MOTION": 15.30269106,
    "ECCENTRICITY": 0.0001065,
    "INCLINATION": 53.1582,
    "RA_OF_ASC_NODE": 139.6972,
    "ARG_OF_PERICENTER": 71.6534,
    "MEAN_ANOMALY": 288.4582,
    "EPHEMERIS_TYPE": 0,
    "CLASSIFICATION_TYPE": "U",
    "NORAD_CAT_ID": 62812,
    "ELEMENT_SET_NO": 999,
    "REV_AT_EPOCH": 4504,
    "BSTAR": 0.0013253000000000002,
    "MEAN_MOTION_DOT": 0.00039182,
    "MEAN_MOTION_DDOT": 0.0,
    "TLE_LINE1": "1 62812U 25018G   25315.22885041  .00039182  00000+0  13253-2 0  9999",
    "TLE_LINE2": "2 62812  53.1582 139.6972 0001065  71.6534 288.4582 15.30269106 45043",
    "COMMENT": "Grouped by shell and plane from TLE"
  },
  {
    "OBJECT_NAME": "STARLINK-32855",
    "OBJECT_ID": "25018H",
    "EPOCH": "2025-11-11T05:11:19.885632",
    "MEAN_MOTION": 15.30211778,
    "ECCENTRICITY": 0.0001363,
    "INCLINATION": 53.1559,
    "RA_OF_ASC_NODE": 139.6039,
    "ARG_OF_PERICENTER": 77.038,
    "MEAN_ANOMALY": 283.0773,
    "EPHEMERIS_TYPE": 0,
    "CLASSIFICATION_TYPE": "U",
    "NORAD_CAT_ID": 62813,
    "ELEMENT_SET_NO": 999,
    "REV_AT_EPOCH": 4503,
    "BSTAR": 0.0012965,
    "MEAN_MOTION_DOT": 0.00038253,
    "MEAN_MOTION_DDOT": 0.0,
    "TLE_LINE1": "1 62813U 25018H   25315.21620238  .00038253  00000+0  12965-2 0  9991",
    "TLE_LINE2": "2 62813  53.1559 139.6039 0001363  77.0380 283.0773 15.30211778 45036",
    "COMMENT": "Grouped by shell and plane from TLE"
  },
  {
    "OBJECT_NAME": "STARLINK-32845",
    "OBJECT_ID": "25018K",
    "EPOCH": "2025-11-11T05:20:26.920320",
    "MEAN_MOTION": 15.30225022,
    "ECCENTRICITY": 0.0001722,
    "INCLINATION": 53.1564,
    "RA_OF_ASC_NODE": 139.643,
    "ARG_OF_PERICENTER": 81.8098,
    "MEAN_ANOMALY": 278.3098,
    "EPHEMERIS_TYPE": 0,
    "CLASSIFICATION_TYPE": "U",
    "NORAD_CAT_ID": 62815,
    "ELEMENT_SET_NO": 999,
    "REV_AT_EPOCH": 4503,
    "BSTAR": 0.0013382,
    "MEAN_MOTION_DOT": 0.00039515,
    "MEAN_MOTION_DDOT": 0.0,
    "TLE_LINE1": "1 62815U 25018K   25315.22253380  .00039515  00000+0  13382-2 0  9990",
    "TLE_LINE2": "2 62815  53.1564 139.6430 0001722  81.8098 278.3098 15.30225022 45031",
    "COMMENT": "Grouped by shell and plane from TLE"
  },
  {
    "OBJECT_NAME": "STARLINK-32854",
    "OBJECT_ID": "25018L",
    "EPOCH": "2025-11-11T05:53:52.590048",
    "MEAN_MOTION": 15.30228822,
    "ECCENTRICITY": 3.36e-05,
    "INCLINATION": 53.1593,
    "RA_OF_ASC_NODE": 139.7913,
    "ARG_OF_PERICENTER": 78.9532,
    "MEAN_ANOMALY": 281.1507,
    "EPHEMERIS_TYPE": 0,
    "CLASSIFICATION_TYPE": "U",
    "NORAD_CAT_ID": 62816,
    "ELEMENT_SET_NO": 999,
    "REV_AT_EPOCH": 4502,
    "BSTAR": 0.0013178999999999999,
    "MEAN_MOTION_DOT": 0.00038912,
    "MEAN_MOTION_DDOT": 0.0,
    "TLE_LINE1": "1 62816U 25018L   25315.24574757  .00038912  00000+0  13179-2 0  9991",
    "TLE_LINE2": "2 62816  53.1593 139.7913 0000336  78.9532 281.1507 15.30228822 45028",
    "COMMENT": "Grouped by shell and plane from TLE"
  },
  {
    "OBJECT_NAME": "STARLINK-32824",
    "OBJECT_ID": "25018M",
    "EPOCH": "2025-11-11T05:23:29.245920",
    "MEAN_MOTION": 15.30211753,
    "ECCENTRICITY": 0.0001585,
    "INCLINATION": 53.1512,
    "RA_OF_ASC_NODE": 139.655,
    "ARG_OF_PERICENTER": 79.9673,
    "MEAN_ANOMALY": 280.1506,
    "EPHEMERIS_TYPE": 0,
    "CLASSIFICATION_TYPE": "U",
    "NORAD_CAT_ID": 62817,
    "ELEMENT_SET_NO": 999,
    "REV_AT_EPOCH": 4598,
    "BSTAR": 0.0011568000000000001,
    "MEAN_MOTION_DOT": 0.00034071,
    "MEAN_MOTION_DDOT": 0.0,
    "TLE_LINE1": "1 62817U 25018M   25315.22464405  .00034071  00000+0  11568-2 0  9990",
    "TLE_LINE2": "2 62817  53.1512 139.6550 0001585  79.9673 280.1506 15.30211753 45988",
    "COMMENT": "Grouped by shell and plane from TLE"
  },
  {
    "OBJECT_NAME": "STARLINK-32853",
    "OBJECT_ID": "25018N",
    "EPOCH": "2025-11-11T05:14:22.257024",
    "MEAN_MOTION": 15.30208031,
    "ECCENTRICITY": 0.0001524,
    "INCLINATION": 53.1574,
    "RA_OF_ASC_NODE": 139.6168,
    "ARG_OF_PERICENTER": 80.7351,
    "MEAN_ANOMALY": 279.3822,
    "EPHEMERIS_TYPE": 0,
    "CLASSIFICATION_TYPE": "U",
    "NORAD_CAT_ID": 62818,
    "ELEMENT_SET_NO": 999,
    "REV_AT_EPOCH": 4504,
    "BSTAR": 0.0014044,
    "MEAN_MOTION_DOT": 0.00041478,
    "MEAN_MOTION_DDOT": 0.0,
    "TLE_LINE1": "1 62818U 25018N   25315.21831316  .00041478  00000+0  14044-2 0  9990",
    "TLE_LINE2": "2 62818  53.1574 139.6168 0001524  80.7351 279.3822 15.30208031 45041",
    "COMMENT": "Grouped by shell and plane from TLE"
  },
  {
    "OBJECT_NAME": "STARLINK-32856",
    "OBJECT_ID": "25018P",
    "EPOCH": "2025-11-11T05:47:48.834816",
    "MEAN_MOTION": 15.30190216,
    "ECCENTRICITY": 0.0001378,
    "INCLINATION": 53.1567,
    "RA_OF_ASC_NODE": 139.7631,
    "ARG_OF_PERICENTER": 81.1974,
    "MEAN_ANOMALY": 278.9183,
    "EPHEMERIS_TYPE": 0,
    "CLASSIFICATION_TYPE": "U",
    "NORAD_CAT_ID": 62819,
    "ELEMENT_SET_NO": 999,
    "REV_AT_EPOCH": 4504,
    "BSTAR": 0.0015537,
    "MEAN_MOTION_DOT": 0.00045927,
    "MEAN_MOTION_DDOT": 0.0,
    "TLE_LINE1": "1 62819U 25018P   25315.24153744  .00045927  00000+0  15537-2 0  9997",
    "TLE_LINE2": "2 62819  53.1567 139.7631 0001378  81.1974 278.9183 15.30190216 45043",
    "COMMENT": "Grouped by shell and plane from TLE"
  }
]